ONEWEB-0140             
1 47286U 20100AE  21073.91668981  .00000015  00000-0  00000+0 0  9996
2 47286  87.7171  12.8604 0010494   2.0785 132.2342 13.77410022 12693
ONEWEB-0141             
1 47287U 20100AF  21073.91668981  .00000015  00000-0  00000+0 0  9997
2 47287  87.7578  12.8663 0011368 344.9045 189.2723 13.80076364 12694
ONEWEB-0142             
1 47288U 20100AG  21073.91668981  .00000015  00000-0  00000+0 0  9998
2 47288  87.7115  12.8992 0007241 350.6165 225.4723 13.74864616 12690
ONEWEB-0143             
1 47289U 20100AH  21073.91668981 -.00041098  00000-0 -44299-1 0  9997
2 47289  87.6935  12.7312 0013368   0.7379 113.8519 13.73649169 12632
ONEWEB-0144             
1 47290U 20100AJ  21073.91668981  .00000015  00000-0  00000+0 0  9991
2 47290  87.7059  12.7611 0009812   5.2344 299.3200 13.63616227 12618
ONEWEB-0145             
1 47291U 20100AK  21073.83337963  .00000016  00000-0  00000+0 0  9997
2 47291  87.7248  12.9263 0011606 328.2140 121.4935 13.81239262 12755
ONEWEB-0146             
1 47292U 20100AL  21073.91668981  .00000015  00000-0  00000+0 0  9993
2 47292  87.7443  12.8609 0012718 350.1656 128.8796 13.78187591 12677
ONEWEB-0147             
1 47293U 20100AM  21073.91668981  .00000015  00000-0  00000+0 0  9994
2 47293  87.6690  12.7417 0010641 345.0895 220.1568 13.57241733 12611
2020-102A               
1 47296U 20102A   21073.87835368  .00001203  00000-0  60918-4 0  9998
2 47296  97.4305 172.9038 0006100 256.7531 242.6423 15.18894223 12553
2020-102B               
1 47297U 20102B   21073.85100773  .00000741  00000-0  38191-4 0  9996
2 47297  97.4283 172.9185 0004751 232.8601 275.2014 15.19408264 12538
2020-102C               
1 47298U 20102C   21073.88931145  .00001879  00000-0  81346-4 0  9998
2 47298  97.3887 173.0484 0002077  85.7244  46.7869 15.23639512 12580
2020-102D               
1 47299U 20102D   21073.89025841  .00001103  00000-0  54598-4 0  9996
2 47299  97.4298 173.0346 0004106 210.1539 284.2090 15.19865408 12553
2020-102E               
1 47300U 20102E   21073.84919515  .00001962  00000-0  92300-4 0  9990
2 47300  97.4309 173.1016 0004702 168.8808 339.8433 15.20730187 12559
YAOGAN-33               
1 47302U 20103A   21073.84344110  .00000066  00000-0  24001-4 0  9993
2 47302  98.2656 323.4745 0001682  64.0425 296.0948 14.59131508 11265
WEINA 2                 
1 47303U 20103B   21073.82642934  .00000206  00000-0  53554-4 0  9998
2 47303  98.2662 323.5104 0001027  54.4008 305.7287 14.59144469 11260
TURKSAT 5A              
1 47306U 21001A   21069.56363403 -.00000280  00000-0  00000-0 0  9993
2 47306   4.2538 319.3131 5031950 197.8594 100.9121  1.00348868   698
CAPE-3                  
1 47309U 21002A   21073.56393799  .00001086  00000-0  61352-4 0  9998
2 47309  60.6844 286.6212 0024945 343.8684  16.1605 15.20437952  8454
POLARCUBE               
1 47310U 21002B   21073.55043614  .00002964  00000-0  14437-3 0  9994
2 47310  60.6818 286.5392 0023434 346.0000  14.0434 15.20867725  8445
RADFXSAT-2 (AO-109)     
1 47311U 21002C   21073.85937658  .00001901  00000-0  95807-4 0  9999
2 47311  60.6845 285.2159 0020875 348.4713  11.5892 15.21341426  8486
2021-002D               
1 47312U 21002D   21073.84807665  .00013653  00000-0  60004-3 0  9990
2 47312  60.6868 285.1626 0020453 351.0411   9.0308 15.22040365  8480
PROMETHEUS 2-11         
1 47313U 21002E   21073.57573049  .00003568  00000-0  16597-3 0  9999
2 47313  60.6858 286.0907 0021027 337.4401  22.5759 15.22005539  8436
MITEE-1                 
1 47314U 21002F   21073.81696518  .00002823  00000-0  13181-3 0  9993
2 47314  60.6839 284.9993 0018906 331.1706  28.8334 15.22562566  8491
2021-002G               
1 47315U 21002G   21073.80540566  .00001626  00000-0  80416-4 0  9990
2 47315  60.6825 284.9368 0016603 332.5337  27.4870 15.22821099  8499
2021-002J               
1 47317U 21002J   21073.56140751  .00000976  00000-0  56319-4 0  9999
2 47317  60.6834 286.6055 0024851 342.9829  17.0420 15.20497962  8423
2021-002K               
1 47318U 21002K   21073.56030889  .00000985  00000-0  56647-4 0  9994
2 47318  60.6831 286.5987 0024783 342.6853  17.3385 15.20526310  8425
CP12 (EXOCUBE 2)        
1 47319U 21002L   21073.28094583  .00001121  00000-0  62067-4 0  9991
2 47319  60.6819 287.4915 0022388 346.2636  13.7838 15.20968352  8352
TIANTONG-1 3            
1 47321U 21003A   21073.17480022 -.00000174  00000-0  00000-0 0  9993
2 47321   5.4190 309.7510 0001102  92.1694 274.4941  1.00273692   717
PROMETHEUS 2-8          
1 47345U 21002N   21073.57570336  .00003732  00000-0  17304-3 0  9990
2 47345  60.6858 286.0908 0021005 337.4998  22.5165 15.22003786  8173
GMS-T                   
1 47346U 21004A   21070.48133895  .00093292  00000-0  24334+0 0  9992
2 47346  90.0070 229.8143 0000759 185.2449 174.8624 13.16083743  6582
STARLINK-1952           
1 47349U 21005A   21073.58340278  .00037462  00000-0  25209-2 0  9997
2 47349  53.0562 316.8716 0001420  74.6375 221.2913 15.06394853  1758
STARLINK-2011           
1 47350U 21005B   21073.58340278  .00043011  00000-0  28903-2 0  9990
2 47350  53.0579 316.8726 0001301  71.7519 249.1907 15.06381166  1750
STARLINK-2017           
1 47351U 21005C   21073.58340278 -.00027337  00000-0 -29412-3 0  9993
2 47351  53.0534 310.4929 0001940  30.7714 121.4590 15.62716761  1775
STARLINK-2034           
1 47352U 21005D   21073.58340278  .00044159  00000-0  29669-2 0  9996
2 47352  53.0499 316.8824 0001480  83.3179 312.6651 15.06375523  1764
STARLINK-2045           
1 47353U 21005E   21073.91668981 -.00038068  00000-0 -41282-3 0  9998
2 47353  53.0514 308.8475 0002219  25.2167 208.8352 15.62690698  9362
STARLINK-2046           
1 47354U 21005F   21073.91668981  .00032325  00000-0  35860-3 0  9992
2 47354  53.0536 308.8735 0002110  31.6651 195.3524 15.62670227  9362
STARLINK-2047           
1 47355U 21005G   21073.91668981  .00013449  00000-0  15306-3 0  9992
2 47355  53.0539 308.8571 0002131  30.5613 202.8403 15.62653222  9369
STARLINK-2049           
1 47356U 21005H   21073.91668981  .00029829  00000-0  33146-3 0  9994
2 47356  53.0528 308.8725 0002276  33.8682 189.9737 15.62670694  9650
STARLINK-2050           
1 47357U 21005J   21073.58340278  .00036344  00000-0  24478-2 0  9991
2 47357  53.0537 316.8705 0001573  78.1922  77.7852 15.06376620  1807
STARLINK-2055           
1 47358U 21005K   21073.91668981  .00032487  00000-0  36001-3 0  9993
2 47358  53.0522 308.8744 0002192  26.1688 195.8022 15.62695586  9655
STARLINK-2069           
1 47359U 21005L   21073.91668981 -.01030298  00000-0 -50249-1 0  9993
2 47359  53.0508 310.7013 0001241  91.3399 195.0024 15.20813514  9334
STARLINK-2070           
1 47360U 21005M   21073.91668981  .00034743  00000-0  38454-3 0  9997
2 47360  53.0535 308.8709 0002081  28.3452 198.0741 15.62692665  8694
STARLINK-2071           
1 47361U 21005N   21073.58340278  .00013046  00000-0  14839-3 0  9991
2 47361  53.0537 310.5095 0001894  40.0380 104.5581 15.62699810  1828
STARLINK-2076           
1 47362U 21005P   21073.58340278  .00036191  00000-0  24364-2 0  9991
2 47362  53.0571 316.8724 0001239  65.1298 150.7691 15.06395254  1754
STARLINK-2077           
1 47363U 21005Q   21073.91668981 -.00017807  00000-0 -11795-2 0  9992
2 47363  53.0570 315.3779 0001839  72.6414 131.7623 15.06399207  8604
STARLINK-2079           
1 47364U 21005R   21073.91668981 -.00022929  00000-0 -15254-2 0  9998
2 47364  53.0466 315.4209 0001424  76.6148 307.7754 15.06398793  8605
STARLINK-2080           
1 47365U 21005S   21073.91668981  .00016466  00000-0  18579-3 0  9990
2 47365  53.0536 308.8572 0002202  39.8584 192.8978 15.62684384  9364
STARLINK-2081           
1 47366U 21005T   21073.58340278  .00043092  00000-0  28959-2 0  9997
2 47366  53.0507 316.8789 0001427  86.9414 329.0202 15.06378156  1816
STARLINK-2082           
1 47367U 21005U   21073.58340278  .00007627  00000-0  53035-3 0  9996
2 47367  53.0567 316.8723 0001435  75.8302 200.1460 15.06399543  1754
STARLINK-2084           
1 47368U 21005V   21073.58340278  .00042708  00000-0  28694-2 0  9998
2 47368  53.0564 316.8727 0001670  78.1569 237.7538 15.06391253  1750
STARLINK-2085           
1 47369U 21005W   21073.58340278 -.00044315  00000-0 -48157-3 0  9994
2 47369  53.0536 310.5036 0001919  34.1541 115.5608 15.62709656  1823
STARLINK-2086           
1 47370U 21005X   21073.58340278 -.00029320  00000-0 -31594-3 0  9992
2 47370  53.0537 310.4904 0002127  33.8257 119.0219 15.62716940  1822
STARLINK-2088           
1 47371U 21005Y   21073.58340278  .00035667  00000-0  24014-2 0  9990
2 47371  53.0573 316.8729 0002176  82.8719 153.0481 15.06397697  1752
STARLINK-2089           
1 47372U 21005Z   21073.91668981 -.01046205  00000-0 -43070-1 0  9997
2 47372  53.0492 311.1968 0001380  74.1663  41.8991 15.26516822  8666
STARLINK-2092           
1 47373U 21005AA  21073.58340278  .00038601  00000-0  25974-2 0  9999
2 47373  53.0569 316.8717 0001649  77.9381 178.0361 15.06382386  1753
STARLINK-2093           
1 47374U 21005AB  21073.58340278 -.00002763  00000-0 -16661-3 0  9996
2 47374  53.0561 316.8711 0001620  77.2092  98.7651 15.06406128  1752
STARLINK-2094           
1 47375U 21005AC  21073.58340278  .00039416  00000-0  26507-2 0  9999
2 47375  53.0521 316.8700 0002114  84.4107  31.4686 15.06393833  1753
STARLINK-2096           
1 47376U 21005AD  21073.58340278  .00038872  00000-0  26167-2 0  9997
2 47376  53.0528 316.8706 0001721  90.1932   5.8129 15.06363767  1750
STARLINK-2097           
1 47377U 21005AE  21073.58340278  .00037406  00000-0  25181-2 0  9995
2 47377  53.0553 316.8715 0001387  73.5085  67.5830 15.06380735  1759
STARLINK-2098           
1 47378U 21005AF  21073.58340278 -.00009584  00000-0 -99129-4 0  9999
2 47378  53.0538 310.4893 0001815  35.2383 119.5525 15.62707566  1770
